{"type": "FeatureCollection", "features": [{"type": "Feature", "properties": {"norad_id": 66313, "name": "YAOGAN-46", "group": "last-30-days", "lat": 16.75390939509822, "lon": 153.98660321756824, "alt_km": 7425.347099493859, "timestamp": "2025-12-03T08:58:44.775429+00:00", "meta": {"OBJECT_NAME": "YAOGAN-46", "OBJECT_ID": "2025-250A", "EPOCH": "2025-11-23T01:44:02.775840", "MEAN_MOTION": 5.35115916, "ECCENTRICITY": 0.00492374, "INCLINATION": 20.0335, "RA_OF_ASC_NODE": 104.8243, "ARG_OF_PERICENTER": 135.6954, "MEAN_ANOMALY": 224.7061, "EPHEMERIS_TYPE": 0, "CLASSIFICATION_TYPE": "U", "NORAD_CAT_ID": 66313, "ELEMENT_SET_NO": 999, "REV_AT_EPOCH": 114, "BSTAR": 0, "MEAN_MOTION_DOT": -7e-08, "MEAN_MOTION_DDOT": 0}, "tle": {"line1": "1 66313U 25250A   25327.07225435 -.00000007  00000+0  00000+0 0  9996", "line2": "2 66313  20.0335 104.8243 0049237 135.6954 224.7061  5.35115916  1148"}}, "geometry": {"type": "Point", "coordinates": [153.98660321756824, 16.75390939509822]}}, {"type": "Feature", "properties": {"norad_id": 66315, "name": "SENTINEL-1D", "group": "last-30-days", "lat": -48.430040835882096, "lon": 153.18083892413964, "alt_km": 699.8504201632913, "timestamp": "2025-12-03T08:58:44.775487+00:00", "meta": {"OBJECT_NAME": "SENTINEL-1D", "OBJECT_ID": "2025-251A", "EPOCH": "2025-12-03T01:21:13.582080", "MEAN_MOTION": 14.59910506, "ECCENTRICITY": 0.0002616, "INCLINATION": 98.1924, "RA_OF_ASC_NODE": 342.2151, "ARG_OF_PERICENTER": 154.2642, "MEAN_ANOMALY": 205.8688, "EPHEMERIS_TYPE": 0, "CLASSIFICATION_TYPE": "U", "NORAD_CAT_ID": 66315, "ELEMENT_SET_NO": 999, "REV_AT_EPOCH": 412, "BSTAR": 7.3946e-05, "MEAN_MOTION_DOT": 3.08e-06, "MEAN_MOTION_DDOT": 0}, "tle": {"line1": "1 66315U 25251A   25337.05640720  .00000308  00000+0  73946-4 0  9993", "line2": "2 66315  98.1924 342.2151 0002616 154.2642 205.8688 14.59910506  4127"}}, "geometry": {"type": "Point", "coordinates": [153.18083892413964, -48.430040835882096]}}, {"type": "Feature", "properties": {"norad_id": 66316, "name": "QPS-SAR-14 (YACHIHOKO-I)", "group": "last-30-days", "lat": -27.723018059859836, "lon": -17.53653975757566, "alt_km": 580.5218289985332, "timestamp": "2025-12-03T08:58:44.775504+00:00", "meta": {"OBJECT_NAME": "QPS-SAR-14 (YACHIHOKO-I)", "OBJECT_ID": "2025-252A", "EPOCH": "2025-12-02T22:22:47.369280", "MEAN_MOTION": 14.97533583, "ECCENTRICITY": 0.0006865, "INCLINATION": 42.003, "RA_OF_ASC_NODE": 129.1524, "ARG_OF_PERICENTER": 82.8297, "MEAN_ANOMALY": 277.3308, "EPHEMERIS_TYPE": 0, "CLASSIFICATION_TYPE": "U", "NORAD_CAT_ID": 66316, "ELEMENT_SET_NO": 999, "REV_AT_EPOCH": 406, "BSTAR": 0.00069309, "MEAN_MOTION_DOT": 8.05e-05, "MEAN_MOTION_DDOT": 0}, "tle": {"line1": "1 66316U 25252A   25336.93249270  .00008050  00000+0  69309-3 0  9995", "line2": "2 66316  42.0030 129.1524 0006865  82.8297 277.3308 14.97533583  4066"}}, "geometry": {"type": "Point", "coordinates": [-17.53653975757566, -27.723018059859836]}}, {"type": "Feature", "properties": {"norad_id": 66317, "name": "ELECTRON R/B", "group": "last-30-days", "lat": 0.6832838555242302, "lon": 108.50666982525598, "alt_km": 230.49711913558895, "timestamp": "2025-12-03T08:58:44.775518+00:00", "meta": {"OBJECT_NAME": "ELECTRON R/B", "OBJECT_ID": "2025-252B", "EPOCH": "2025-12-02T16:34:05.009664", "MEAN_MOTION": 16.0533306, "ECCENTRICITY": 0.0095405, "INCLINATION": 41.9863, "RA_OF_ASC_NODE": 112.1675, "ARG_OF_PERICENTER": 66.2143, "MEAN_ANOMALY": 294.869, "EPHEMERIS_TYPE": 0, "CLASSIFICATION_TYPE": "U", "NORAD_CAT_ID": 66317, "ELEMENT_SET_NO": 999, "REV_AT_EPOCH": 423, "BSTAR": 0.0016884, "MEAN_MOTION_DOT": 0.02343617, "MEAN_MOTION_DDOT": 8.0902e-06}, "tle": {"line1": "1 66317U 25252B   25336.69033576  .02343617  80902-5  16884-2 0  9996", "line2": "2 66317  41.9863 112.1675 0095405  66.2143 294.8690 16.05333060  4238"}}, "geometry": {"type": "Point", "coordinates": [108.50666982525598, 0.6832838555242302]}}, {"type": "Feature", "properties": {"norad_id": 66319, "name": "STARLINK-35442", "group": "last-30-days", "lat": 32.59447444326044, "lon": 83.17061850736904, "alt_km": 439.72084258099403, "timestamp": "2025-12-03T08:58:44.775531+00:00", "meta": {"OBJECT_NAME": "STARLINK-35442", "OBJECT_ID": "2025-253A", "EPOCH": "2025-12-03T04:00:01.998720", "MEAN_MOTION": 15.40627378, "ECCENTRICITY": 0.0001249, "INCLINATION": 43.0011, "RA_OF_ASC_NODE": 41.0422, "ARG_OF_PERICENTER": 257.6754, "MEAN_ANOMALY": 82.6733, "EPHEMERIS_TYPE": 0, "CLASSIFICATION_TYPE": "U", "NORAD_CAT_ID": 66319, "ELEMENT_SET_NO": 999, "REV_AT_EPOCH": 548, "BSTAR": 0.0021196, "MEAN_MOTION_DOT": 0.00089063, "MEAN_MOTION_DDOT": 0}, "tle": {"line1": "1 66319U 25253A   25337.16668980  .00089063  00000+0  21196-2 0  9992", "line2": "2 66319  43.0011  41.0422 0001249 257.6754  82.6733 15.40627378  5480"}}, "geometry": {"type": "Point", "coordinates": [83.17061850736904, 32.59447444326044]}}, {"type": "Feature", "properties": {"norad_id": 66320, "name": "STARLINK-34616", "group": "last-30-days", "lat": -6.8379992676071915, "lon": -133.09882707556864, "alt_km": 415.0386879897751, "timestamp": "2025-12-03T08:58:44.775543+00:00", "meta": {"OBJECT_NAME": "STARLINK-34616", "OBJECT_ID": "2025-253B", "EPOCH": "2025-12-02T12:04:03.392256", "MEAN_MOTION": 15.5059712, "ECCENTRICITY": 0.00016197, "INCLINATION": 43.0005, "RA_OF_ASC_NODE": 44.6062, "ARG_OF_PERICENTER": 274.0056, "MEAN_ANOMALY": 86.0619, "EPHEMERIS_TYPE": 0, "CLASSIFICATION_TYPE": "U", "NORAD_CAT_ID": 66320, "ELEMENT_SET_NO": 999, "REV_AT_EPOCH": 542, "BSTAR": 0.0018491849, "MEAN_MOTION_DOT": 0.00109746, "MEAN_MOTION_DDOT": 0}, "tle": {"line1": "1 66320U 25253B   25336.50281704  .00109746  00000+0  18492-2 0  9992", "line2": "2 66320  43.0005  44.6062 0001619 274.0056  86.0619 15.50597120  5420"}}, "geometry": {"type": "Point", "coordinates": [-133.09882707556864, -6.8379992676071915]}}, {"type": "Feature", "properties": {"norad_id": 66321, "name": "STARLINK-34615", "group": "last-30-days", "lat": 23.682944471473817, "lon": -169.33795312819427, "alt_km": 393.3629589534885, "timestamp": "2025-12-03T08:58:44.775555+00:00", "meta": {"OBJECT_NAME": "STARLINK-34615", "OBJECT_ID": "2025-253C", "EPOCH": "2025-12-03T04:00:01.998720", "MEAN_MOTION": 15.58015756, "ECCENTRICITY": 0.0001381, "INCLINATION": 43.0002, "RA_OF_ASC_NODE": 39.9675, "ARG_OF_PERICENTER": 273.5991, "MEAN_ANOMALY": 145.7531, "EPHEMERIS_TYPE": 0, "CLASSIFICATION_TYPE": "U", "NORAD_CAT_ID": 66321, "ELEMENT_SET_NO": 999, "REV_AT_EPOCH": 543, "BSTAR": -0.034694, "MEAN_MOTION_DOT": -0.02345152, "MEAN_MOTION_DDOT": 0}, "tle": {"line1": "1 66321U 25253C   25337.16668980 -.02345152  00000+0 -34694-1 0  9999", "line2": "2 66321  43.0002  39.9675 0001381 273.5991 145.7531 15.58015756  5438"}}, "geometry": {"type": "Point", "coordinates": [-169.33795312819427, 23.682944471473817]}}, {"type": "Feature", "properties": {"norad_id": 66322, "name": "STARLINK-35292", "group": "last-30-days", "lat": 42.98003626450523, "lon": 129.35585073154783, "alt_km": 437.7207264916342, "timestamp": "2025-12-03T08:58:44.775567+00:00", "meta": {"OBJECT_NAME": "STARLINK-35292", "OBJECT_ID": "2025-253D", "EPOCH": "2025-12-02T16:00:03.000096", "MEAN_MOTION": 15.40663455, "ECCENTRICITY": 0.0001673, "INCLINATION": 43.001, "RA_OF_ASC_NODE": 43.832, "ARG_OF_PERICENTER": 283.7608, "MEAN_ANOMALY": 197.3251, "EPHEMERIS_TYPE": 0, "CLASSIFICATION_TYPE": "U", "NORAD_CAT_ID": 66322, "ELEMENT_SET_NO": 999, "REV_AT_EPOCH": 531, "BSTAR": 0.003769731, "MEAN_MOTION_DOT": 0.00160325, "MEAN_MOTION_DDOT": 0}, "tle": {"line1": "1 66322U 25253D   25336.66670139  .00160325  00000+0  37697-2 0  9993", "line2": "2 66322  43.0010  43.8320 0001673 283.7608 197.3251 15.40663455  5316"}}, "geometry": {"type": "Point", "coordinates": [129.35585073154783, 42.98003626450523]}}, {"type": "Feature", "properties": {"norad_id": 66323, "name": "STARLINK-35309", "group": "last-30-days", "lat": -16.89363213216858, "lon": -121.502534253368, "alt_km": 416.5447876104854, "timestamp": "2025-12-03T08:58:44.775583+00:00", "meta": {"OBJECT_NAME": "STARLINK-35309", "OBJECT_ID": "2025-253E", "EPOCH": "2025-12-02T21:16:39.661824", "MEAN_MOTION": 15.50623104, "ECCENTRICITY": 6.32e-05, "INCLINATION": 42.9971, "RA_OF_ASC_NODE": 42.3277, "ARG_OF_PERICENTER": 6.4347, "MEAN_ANOMALY": 353.6521, "EPHEMERIS_TYPE": 0, "CLASSIFICATION_TYPE": "U", "NORAD_CAT_ID": 66323, "ELEMENT_SET_NO": 999, "REV_AT_EPOCH": 540, "BSTAR": 0.0025751, "MEAN_MOTION_DOT": 0.00153977, "MEAN_MOTION_DDOT": 0}, "tle": {"line1": "1 66323U 25253E   25336.88657016  .00153977  00000+0  25751-2 0  9990", "line2": "2 66323  42.9971  42.3277 0000632   6.4347 353.6521 15.50623104  5405"}}, "geometry": {"type": "Point", "coordinates": [-121.502534253368, -16.89363213216858]}}, {"type": "Feature", "properties": {"norad_id": 66324, "name": "STARLINK-35506", "group": "last-30-days", "lat": -11.942395208325328, "lon": -127.38849250626434, "alt_km": 416.1241909214459, "timestamp": "2025-12-03T08:58:44.775595+00:00", "meta": {"OBJECT_NAME": "STARLINK-35506", "OBJECT_ID": "2025-253F", "EPOCH": "2025-12-02T21:18:38.392704", "MEAN_MOTION": 15.50722844, "ECCENTRICITY": 0.0001107, "INCLINATION": 42.9991, "RA_OF_ASC_NODE": 42.3374, "ARG_OF_PERICENTER": 339.0363, "MEAN_ANOMALY": 21.0451, "EPHEMERIS_TYPE": 0, "CLASSIFICATION_TYPE": "U", "NORAD_CAT_ID": 66324, "ELEMENT_SET_NO": 999, "REV_AT_EPOCH": 540, "BSTAR": 0.0016172, "MEAN_MOTION_DOT": 0.00096197, "MEAN_MOTION_DDOT": 0}, "tle": {"line1": "1 66324U 25253F   25336.88794436  .00096197  00000+0  16172-2 0  9996", "line2": "2 66324  42.9991  42.3374 0001107 339.0363  21.0451 15.50722844  5406"}}, "geometry": {"type": "Point", "coordinates": [-127.38849250626434, -11.942395208325328]}}]}